[{"OBJECT_NAME":"HERMES-2","OBJECT_ID":"2025-052AK","EPOCH":"2026-03-09T22:17:00.130272","MEAN_MOTION":15.28021069,"ECCENTRICITY":0.00063399,"INCLINATION":97.4004,"RA_OF_ASC_NODE":324.4926,"ARG_OF_PERICENTER":99.416,"MEAN_ANOMALY":260.7796,"EPHEMERIS_TYPE":0,"CLASSIFICATION_TYPE":"U","NORAD_CAT_ID":63243,"ELEMENT_SET_NO":999,"REV_AT_EPOCH":5485,"BSTAR":0.00034839454,"MEAN_MOTION_DOT":9.456e-5,"MEAN_MOTION_DDOT":0},{"OBJECT_NAME":"STARLINK-33781","OBJECT_ID":"2025-092Y","EPOCH":"2026-03-08T15:50:16.433952","MEAN_MOTION":15.27570338,"ECCENTRICITY":0.00012734,"INCLINATION":43.0014,"RA_OF_ASC_NODE":178.6611,"ARG_OF_PERICENTER":244.9991,"MEAN_ANOMALY":115.0728,"EPHEMERIS_TYPE":0,"CLASSIFICATION_TYPE":"U","NORAD_CAT_ID":63826,"ELEMENT_SET_NO":999,"REV_AT_EPOCH":4850,"BSTAR":0.0010639619,"MEAN_MOTION_DOT":0.00029123,"MEAN_MOTION_DDOT":0}]
